[{"OBJECT_NAME":"AFR-1","OBJECT_ID":"2023-084AJ","EPOCH":"2026-03-09T23:02:07.499328","MEAN_MOTION":15.27543824,"ECCENTRICITY":0.00099838,"INCLINATION":97.6099,"RA_OF_ASC_NODE":203.4313,"ARG_OF_PERICENTER":334.9676,"MEAN_ANOMALY":25.1077,"EPHEMERIS_TYPE":0,"CLASSIFICATION_TYPE":"U","NORAD_CAT_ID":56964,"ELEMENT_SET_NO":999,"REV_AT_EPOCH":15207,"BSTAR":0.00024843733,"MEAN_MOTION_DOT":6.624e-5,"MEAN_MOTION_DDOT":0},{"OBJECT_NAME":"STARLINK-35910","OBJECT_ID":"2025-303X","EPOCH":"2026-03-09T01:27:09.464544","MEAN_MOTION":15.27604781,"ECCENTRICITY":1.845e-5,"INCLINATION":42.9961,"RA_OF_ASC_NODE":313.8596,"ARG_OF_PERICENTER":24.3355,"MEAN_ANOMALY":335.7505,"EPHEMERIS_TYPE":0,"CLASSIFICATION_TYPE":"U","NORAD_CAT_ID":67184,"ELEMENT_SET_NO":999,"REV_AT_EPOCH":1264,"BSTAR":0.0014300603,"MEAN_MOTION_DOT":0.0003933,"MEAN_MOTION_DDOT":0}]
